GLOBALSTAR M067         
1 32263U 07048A   25002.36261422 -.00000063  00000+0  25460-3 0  9999
2 32263  51.9703 161.1454 0001181  55.4814 320.7011 12.40663985788903
GLOBALSTAR M070         
1 32264U 07048B   25002.48589269 -.00000008  00000+0  53661-3 0  9998
2 32264  51.9751 273.2957 0000947  67.6854 341.1173 12.62309501792746
GLOBALSTAR M066         
1 32265U 07048C   25002.33657075 -.00000099  00000+0 -77379-5 0  9999
2 32265  51.9651 147.7109 0001573 104.8200 269.7560 12.42169061794778
GLOBALSTAR M068         
1 32266U 07048D   25002.48070322 -.00000089  00000+0  83733-4 0  9998
2 32266  51.9890  87.3808 0001673 129.4853 243.4367 12.62812685796626
GLOBALSTAR M079         
1 37188U 10054A   25002.23016744 -.00000040  00000+0  35390-3 0  9990
2 37188  52.0047 284.9890 0000563  37.8178 126.6574 12.62269340655490
GLOBALSTAR M074         
1 37189U 10054B   25002.25621433 -.00000028  00000+0  42130-3 0  9996
2 37189  52.0024 284.2567 0000928  56.2147 107.2310 12.62261210656106
GLOBALSTAR M076         
1 37190U 10054C   25002.36107943 -.00000057  00000+0  26195-3 0  9990
2 37190  52.0036 284.0940 0000891  36.7950 123.1308 12.62275617655837
GLOBALSTAR M077         
1 37191U 10054D   25002.42972883 -.00000055  00000+0  27469-3 0  9994
2 37191  52.0057 240.6951 0000990  70.3029 100.8871 12.62269517656214
